{
    "links": {
        "self": "http://www.neowsapp.com/rest/v1/neo/3720005?api_key=iIulBulltgU6a56xZRHN4H3l9WmuAYTsLGpBGhQ2"
    },
    "id": "3720005",
    "neo_reference_id": "3720005",
    "name": "(2015 KO120)",
    "designation": "2015 KO120",
    "nasa_jpl_url": "http://ssd.jpl.nasa.gov/sbdb.cgi?sstr=3720005",
    "absolute_magnitude_h": 22.0,
    "estimated_diameter": {
        "kilometers": {
            "estimated_diameter_min": 0.1058168859,
            "estimated_diameter_max": 0.2366137501
        },
        "meters": {
            "estimated_diameter_min": 105.8168859331,
            "estimated_diameter_max": 236.6137501138
        },
        "miles": {
            "estimated_diameter_min": 0.0657515442,
            "estimated_diameter_max": 0.1470249225
        },
        "feet": {
            "estimated_diameter_min": 347.1682720448,
            "estimated_diameter_max": 776.2918559233
        }
    },
    "is_potentially_hazardous_asteroid": false,
    "close_approach_data": [
        {
            "close_approach_date": "2015-05-01",
            "close_approach_date_full": "2015-May-01 03:03",
            "epoch_date_close_approach": 1430449380000,
            "relative_velocity": {
                "kilometers_per_second": "32.2383661142",
                "kilometers_per_hour": "116058.1180112532",
                "miles_per_hour": "72114.0011609367"
            },
            "miss_distance": {
                "astronomical": "0.1006062632",
                "lunar": "39.1358363848",
                "kilometers": "15050482.683379384",
                "miles": "9351936.2844041392"
            },
            "orbiting_body": "Earth"
        }
    ],
    "orbital_data": {
        "orbit_id": "3",
        "orbit_determination_date": "2017-04-06 08:33:31",
        "first_observation_date": "2015-05-22",
        "last_observation_date": "2015-05-25",
        "data_arc_in_days": 3,
        "observations_used": 15,
        "orbit_uncertainty": "9",
        "minimum_orbit_intersection": ".0107618",
        "jupiter_tisserand_invariant": "3.360",
        "epoch_osculation": "2457165.5",
        "eccentricity": ".9268542403412812",
        "semi_major_axis": "1.781497682611263",
        "inclination": "2.096024809417881",
        "ascending_node_longitude": "241.0863763360163",
        "orbital_period": "868.5129921992273",
        "perihelion_distance": ".130309001324848",
        "perihelion_argument": "198.9615162789482",
        "aphelion_distance": "3.432686363897678",
        "perihelion_time": "2457104.752930434026",
        "mean_anomaly": "25.17975578969134",
        "mean_motion": ".4145015713448533",
        "equinox": "J2000",
        "orbit_class": {
            "orbit_class_type": "APO",
            "orbit_class_description": "Near-Earth asteroid orbits which cross the Earth’s orbit similar to that of 1862 Apollo",
            "orbit_class_range": "a (semi-major axis) > 1.0 AU; q (perihelion) < 1.017 AU"
        }
    },
    "is_sentry_object": false
}